{"fetched_at":"2026-03-29T16:36:15Z","count":15609,"tles":[{"name":"STARLINK-32263","line1":"1 60371U 24138S   26087.77334079 -.00000855  00000+0 -16740-4 0  9999","line2":"2 60371  53.1602 220.6595 0001324  74.9308 285.1840 15.30179916 93457","category":"Starlink"}]}